{"type": "FeatureCollection", "features": [ {"type": "Feature", "properties": {"norad_id": 40701, "name": "GAOFEN-8", "group": "resource", "lat": 31.605959541980727, "lon": -1.3551083680249476, "alt_km": 441.54190239830405, "timestamp": "2025-12-21T07:34:34.197769+00:00", "meta": {"OBJECT_NAME": "GAOFEN-8", "OBJECT_ID": "2015-030A", "EPOCH": "2025-12-20T21:34:20.200224", "MEAN_MOTION": 15.388108, "ECCENTRICITY": 0.00119301, "INCLINATION": 97.6905, "RA_OF_ASC_NODE": 173.4379, "ARG_OF_PERICENTER": 110.5575, "MEAN_ANOMALY": 249.6951, "EPHEMERIS_TYPE": 0, "CLASSIFICATION_TYPE": "U", "NORAD_CAT_ID": 40701, "ELEMENT_SET_NO": 999, "REV_AT_EPOCH": 58396, "BSTAR": 0.00043650608, "MEAN_MOTION_DOT": 0.00016719, "MEAN_MOTION_DDOT": 0}, "tle": {"line1": "1 40701U 15030A   25354.89884491  .00016719  00000+0  43651-3 0  9996", "line2": "2 40701  97.6905 173.4379 0011930 110.5575 249.6951 15.38810800583963"}}, "geometry": {"type": "Point", "coordinates": [-1.3551083680249476, 31.605959541980727]}}, {"type": "Feature", "properties": {"norad_id": 40718, "name": "CARBONITE 1 (CBNT-1)", "group": "resource", "lat": 24.50494173950358, "lon": -0.5107794411061608, "alt_km": 609.4581781925572, "timestamp": "2025-12-21T07:34:34.197778+00:00", "meta": {"OBJECT_NAME": "CARBONITE 1 (CBNT-1)", "OBJECT_ID": "2015-032D", "EPOCH": "2025-12-20T22:46:52.290912", "MEAN_MOTION": 14.82782043, "ECCENTRICITY": 0.00149834, "INCLINATION": 97.6395, "RA_OF_ASC_NODE": 175.6314, "ARG_OF_PERICENTER": 154.4082, "MEAN_ANOMALY": 205.7877, "EPHEMERIS_TYPE": 0, "CLASSIFICATION_TYPE": "U", "NORAD_CAT_ID": 40718, "ELEMENT_SET_NO": 999, "REV_AT_EPOCH": 56292, "BSTAR": 0.00029713495, "MEAN_MOTION_DOT": 2.356e-05, "MEAN_MOTION_DDOT": 0}, "tle": {"line1": "1 40718U 15032D   25354.94921633  .00002356  00000+0  29713-3 0  9997", "line2": "2 40718  97.6395 175.6314 0014983 154.4082 205.7877 14.82782043562926"}}, "geometry": {"type": "Point", "coordinates": [-0.5107794411061608, 24.50494173950358]}}, {"type": "Feature", "properties": {"norad_id": 40878, "name": "YAOGAN-27", "group": "resource", "lat": 63.12078490600566, "lon": -174.86423093356348, "alt_km": 1198.5745820093234, "timestamp": "2025-12-21T07:34:34.197787+00:00", "meta": {"OBJECT_NAME": "YAOGAN-27", "OBJECT_ID": "2015-040A", "EPOCH": "2025-12-20T23:41:42.731232", "MEAN_MOTION": 13.16059208, "ECCENTRICITY": 0.00076088, "INCLINATION": 100.1006, "RA_OF_ASC_NODE": 344.2342, "ARG_OF_PERICENTER": 266.2887, "MEAN_ANOMALY": 93.7356, "EPHEMERIS_TYPE": 0, "CLASSIFICATION_TYPE": "U", "NORAD_CAT_ID": 40878, "ELEMENT_SET_NO": 999, "REV_AT_EPOCH": 49422, "BSTAR": -0.0013352058, "MEAN_MOTION_DOT": -5.49e-06, "MEAN_MOTION_DDOT": 0}, "tle": {"line1": "1 40878U 15040A   25354.98730013 -.00000549  00000+0 -13352-2 0  9992", "line2": "2 40878 100.1006 344.2342 0007608 266.2887  93.7356 13.16059208494228"}}, "geometry": {"type": "Point", "coordinates": [-174.86423093356348, 63.12078490600566]}}, {"type": "Feature", "properties": {"norad_id": 40894, "name": "GAOFEN-9 01", "group": "resource", "lat": 64.84293632456463, "lon": 17.263407249574684, "alt_km": 605.3757206592054, "timestamp": "2025-12-21T07:34:34.197797+00:00", "meta": {"OBJECT_NAME": "GAOFEN-9 01", "OBJECT_ID": "2015-047A", "EPOCH": "2025-12-20T23:10:52.927968", "MEAN_MOTION": 14.82440586, "ECCENTRICITY": 0.00277229, "INCLINATION": 97.6532, "RA_OF_ASC_NODE": 33.5658, "ARG_OF_PERICENTER": 7.826, "MEAN_ANOMALY": 352.3381, "EPHEMERIS_TYPE": 0, "CLASSIFICATION_TYPE": "U", "NORAD_CAT_ID": 40894, "ELEMENT_SET_NO": 999, "REV_AT_EPOCH": 55378, "BSTAR": 0.00010464054, "MEAN_MOTION_DOT": 7.93e-06, "MEAN_MOTION_DDOT": 0}, "tle": {"line1": "1 40894U 15047A   25354.96589037  .00000793  00000+0  10464-3 0  9994", "line2": "2 40894  97.6532  33.5658 0027722   7.8260 352.3381 14.82440586553787"}}, "geometry": {"type": "Point", "coordinates": [17.263407249574684, 64.84293632456463]}}, {"type": "Feature", "properties": {"norad_id": 41026, "name": "YAOGAN-28", "group": "resource", "lat": 69.92313500875869, "lon": 112.3896855315042, "alt_km": 477.88799178120644, "timestamp": "2025-12-21T07:34:34.197806+00:00", "meta": {"OBJECT_NAME": "YAOGAN-28", "OBJECT_ID": "2015-064A", "EPOCH": "2025-12-20T21:48:47.517984", "MEAN_MOTION": 15.24474968, "ECCENTRICITY": 0.00126279, "INCLINATION": 97.2812, "RA_OF_ASC_NODE": 132.4712, "ARG_OF_PERICENTER": 100.0413, "MEAN_ANOMALY": 260.225, "EPHEMERIS_TYPE": 0, "CLASSIFICATION_TYPE": "U", "NORAD_CAT_ID": 41026, "ELEMENT_SET_NO": 999, "REV_AT_EPOCH": 56349, "BSTAR": 0.00022582932, "MEAN_MOTION_DOT": 5.49e-05, "MEAN_MOTION_DDOT": 0}, "tle": {"line1": "1 41026U 15064A   25354.90888331  .00005490  00000+0  22583-3 0  9998", "line2": "2 41026  97.2812 132.4712 0012627 100.0413 260.2250 15.24474968563495"}}, "geometry": {"type": "Point", "coordinates": [112.3896855315042, 69.92313500875869]}}, {"type": "Feature", "properties": {"norad_id": 41038, "name": "YAOGAN-29", "group": "resource", "lat": -31.911035395427355, "lon": 23.552415607101594, "alt_km": 626.6676349496893, "timestamp": "2025-12-21T07:34:34.197815+00:00", "meta": {"OBJECT_NAME": "YAOGAN-29", "OBJECT_ID": "2015-069A", "EPOCH": "2025-12-20T23:37:26.963040", "MEAN_MOTION": 14.82891658, "ECCENTRICITY": 5.548e-05, "INCLINATION": 98.021, "RA_OF_ASC_NODE": 18.1825, "ARG_OF_PERICENTER": 171.8197, "MEAN_ANOMALY": 188.3025, "EPHEMERIS_TYPE": 0, "CLASSIFICATION_TYPE": "U", "NORAD_CAT_ID": 41038, "ELEMENT_SET_NO": 999, "REV_AT_EPOCH": 54421, "BSTAR": 4.8231449e-05, "MEAN_MOTION_DOT": 3.37e-06, "MEAN_MOTION_DDOT": 0}, "tle": {"line1": "1 41038U 15069A   25354.98433985  .00000337  00000+0  48231-4 0  9999", "line2": "2 41038  98.0210  18.1825 0000554 171.8197 188.3025 14.82891658544216"}}, "geometry": {"type": "Point", "coordinates": [23.552415607101594, -31.911035395427355]}}, {"type": "Feature", "properties": {"norad_id": 41167, "name": "KENT RIDGE 1", "group": "resource", "lat": 13.384946419332504, "lon": -95.36992446152014, "alt_km": 500.2596328671907, "timestamp": "2025-12-21T07:34:34.197825+00:00", "meta": {"OBJECT_NAME": "KENT RIDGE 1", "OBJECT_ID": "2015-077B", "EPOCH": "2025-12-20T18:28:55.722432", "MEAN_MOTION": 15.21693011, "ECCENTRICITY": 0.00085387, "INCLINATION": 14.9783, "RA_OF_ASC_NODE": 151.5508, "ARG_OF_PERICENTER": 244.3199, "MEAN_ANOMALY": 115.6241, "EPHEMERIS_TYPE": 0, "CLASSIFICATION_TYPE": "U", "NORAD_CAT_ID": 41167, "ELEMENT_SET_NO": 999, "REV_AT_EPOCH": 55386, "BSTAR": 0.00011405362, "MEAN_MOTION_DOT": 3.411e-05, "MEAN_MOTION_DDOT": 0}, "tle": {"line1": "1 41167U 15077B   25354.77008938  .00003411  00000+0  11405-3 0  9992", "line2": "2 41167  14.9783 151.5508 0008538 244.3199 115.6241 15.21693011553860"}}, "geometry": {"type": "Point", "coordinates": [-95.36992446152014, 13.384946419332504]}}, {"type": "Feature", "properties": {"norad_id": 41194, "name": "GAOFEN-4", "group": "resource", "lat": -0.16139001777193396, "lon": -50.48519675110647, "alt_km": 35794.582745024716, "timestamp": "2025-12-21T07:34:34.197837+00:00", "meta": {"OBJECT_NAME": "GAOFEN-4", "OBJECT_ID": "2015-083A", "EPOCH": "2025-12-19T15:27:26.627616", "MEAN_MOTION": 1.00273138, "ECCENTRICITY": 0.0002945, "INCLINATION": 0.1878, "RA_OF_ASC_NODE": 81.7841, "ARG_OF_PERICENTER": 93.4275, "MEAN_ANOMALY": 250.8523, "EPHEMERIS_TYPE": 0, "CLASSIFICATION_TYPE": "U", "NORAD_CAT_ID": 41194, "ELEMENT_SET_NO": 999, "REV_AT_EPOCH": 3672, "BSTAR": 0, "MEAN_MOTION_DOT": -3.11e-06, "MEAN_MOTION_DDOT": 0}, "tle": {"line1": "1 41194U 15083A   25353.64405819 -.00000311  00000+0  00000+0 0  9995", "line2": "2 41194   0.1878  81.7841 0002945  93.4275 250.8523  1.00273138 36722"}}, "geometry": {"type": "Point", "coordinates": [-50.48519675110647, -0.16139001777193396]}}, {"type": "Feature", "properties": {"norad_id": 41240, "name": "JASON-3", "group": "resource", "lat": 63.791604625793276, "lon": -104.80096629117232, "alt_km": 1309.3360261024727, "timestamp": "2025-12-21T07:34:34.197848+00:00", "meta": {"OBJECT_NAME": "JASON-3", "OBJECT_ID": "2016-002A", "EPOCH": "2025-12-20T21:43:59.956320", "MEAN_MOTION": 12.87626896, "ECCENTRICITY": 0.0007226, "INCLINATION": 66.0399, "RA_OF_ASC_NODE": 140.6563, "ARG_OF_PERICENTER": 271.2978, "MEAN_ANOMALY": 88.7213, "EPHEMERIS_TYPE": 0, "CLASSIFICATION_TYPE": "U", "NORAD_CAT_ID": 41240, "ELEMENT_SET_NO": 999, "REV_AT_EPOCH": 46429, "BSTAR": -1.1736452e-05, "MEAN_MOTION_DOT": -6.5e-07, "MEAN_MOTION_DDOT": 0}, "tle": {"line1": "1 41240U 16002A   25354.90555505 -.00000065  00000+0 -11736-4 0  9997", "line2": "2 41240  66.0399 140.6563 0007226 271.2978  88.7213 12.87626896464293"}}, "geometry": {"type": "Point", "coordinates": [-104.80096629117232, 63.791604625793276]}}, {"type": "Feature", "properties": {"norad_id": 41335, "name": "SENTINEL-3A", "group": "resource", "lat": 79.39009126585916, "lon": -65.6217343070559, "alt_km": 794.63504570842, "timestamp": "2025-12-21T07:34:34.197857+00:00", "meta": {"OBJECT_NAME": "SENTINEL-3A", "OBJECT_ID": "2016-011A", "EPOCH": "2025-12-20T22:42:41.438016", "MEAN_MOTION": 14.26733587, "ECCENTRICITY": 9.058e-05, "INCLINATION": 98.6303, "RA_OF_ASC_NODE": 59.8442, "ARG_OF_PERICENTER": 94.3857, "MEAN_ANOMALY": 265.7427, "EPHEMERIS_TYPE": 0, "CLASSIFICATION_TYPE": "U", "NORAD_CAT_ID": 41335, "ELEMENT_SET_NO": 999, "REV_AT_EPOCH": 51264, "BSTAR": 5.8061272e-05, "MEAN_MOTION_DOT": 9.7e-07, "MEAN_MOTION_DDOT": 0}, "tle": {"line1": "1 41335U 16011A   25354.94631294  .00000097  00000+0  58061-4 0  9991", "line2": "2 41335  98.6303  59.8442 0000905  94.3857 265.7427 14.26733587512646"}}, "geometry": {"type": "Point", "coordinates": [-65.6217343070559, 79.39009126585916]}}]}